{"type":"FeatureCollection","crs":{"type":"name","properties":{"name":"EPSG:4326"}},"features":[{"type":"Feature","geometry":{"type":"Polygon","coordinates":[[[174.97,-35.5822],[174.9421,-35.6468],[174.8857,-35.7022],[174.9126,-35.7216],[174.9047,-35.8296],[174.8713,-35.9095],[174.8118,-35.9835],[174.6059,-36.1216],[174.5802,-36.167],[174.4783,-36.2295],[174.4676,-36.2602],[174.4538,-36.2533],[174.3424,-36.3198],[174.2391,-36.2963],[174.1931,-36.4016],[173.8966,-36.5585],[173.8155,-36.4783],[173.7748,-36.3512],[173.7194,-36.2716],[173.4614,-35.9803],[173.2394,-35.7577],[173.1073,-35.5832],[172.8413,-35.2919],[172.8134,-35.2236],[172.8138,-35.1463],[172.8426,-35.0772],[172.891,-35.0224],[172.6729,-34.7789],[172.4312,-34.5818],[172.3934,-34.4836],[172.4084,-34.3941],[172.5167,-34.2721],[172.6138,-34.2274],[172.7585,-34.2309],[173.0175,-34.1935],[173.1445,-34.2203],[173.2384,-34.2799],[173.2904,-34.3622],[173.2936,-34.4496],[173.2426,-34.5645],[173.4898,-34.5883],[173.5594,-34.6248],[173.695,-34.7424],[174.0592,-34.7882],[174.1453,-34.8366],[174.2321,-34.9563],[174.3942,-34.9684],[174.4809,-34.9992],[174.5668,-35.0873],[174.5857,-35.2104],[174.6217,-35.2673],[174.7095,-35.2449],[174.7997,-35.2503],[174.8792,-35.2808],[174.9453,-35.3368],[174.9786,-35.3938],[174.9929,-35.4708],[174.97,-35.5822]]]},"properties":{"REGC2025_V1_00_NAME":"Northland Region"}},{"type":"Feature","geometry":{"type":"Polygon","coordinates":[[[174.6166,-36.1176],[174.7936,-35.9986],[174.8575,-35.93],[174.9056,-35.826],[174.9114,-35.7133],[174.932,-35.7247],[175.0199,-35.7003],[175.1435,-35.7004],[175.2167,-35.7162],[175.3063,-35.7601],[175.3789,-35.8252],[175.4849,-35.8338],[175.5708,-35.8735],[175.7422,-36.0398],[175.7634,-36.1097],[175.755,-36.1857],[175.779,-36.228],[175.9033,-36.2583],[175.6281,-36.385],[175.4169,-36.3799],[175.251,-36.3997],[175.1631,-36.5239],[175.2666,-36.7038],[175.311,-36.8384],[175.3793,-36.9626],[175.3886,-37.0219],[175.1848,-37.0408],[175.1608,-37.0159],[175.1408,-37.0987],[175.1539,-37.1361],[175.1307,-37.1864],[175.0896,-37.1795],[175.0738,-37.1947],[175.0545,-37.1808],[174.9903,-37.2166],[174.9732,-37.1948],[174.948,-37.1957],[174.9299,-37.2062],[174.9308,-37.2331],[174.8868,-37.2306],[174.8504,-37.2512],[174.8481,-37.2342],[174.8063,-37.2268],[174.7389,-37.2679],[174.6997,-37.2615],[174.6592,-37.2926],[174.4256,-37.3635],[174.3392,-37.2142],[174.2525,-37.1319],[174.1702,-36.8672],[174.1407,-36.8221],[173.9939,-36.639],[173.8966,-36.5585],[174.1931,-36.4016],[174.2386,-36.2966],[174.3562,-36.3159],[174.4538,-36.2533],[174.4682,-36.2598],[174.4784,-36.2294],[174.5802,-36.167],[174.5847,-36.1431],[174.6166,-36.1176]]]},"properties":{"REGC2025_V1_00_NAME":"Auckland"}},{"type":"Feature","geometry":{"type":"Polygon","coordinates":[[[175.5382,-38.4703],[175.5421,-38.4806],[175.4392,-38.4926],[175.4151,-38.5281],[175.3835,-38.5418],[175.3778,-38.5727],[175.3355,-38.5815],[175.3247,-38.5514],[175.303,-38.5715],[175.3019,-38.5992],[175.2851,-38.588],[175.2224,-38.6365],[175.1164,-38.6219],[175.0005,-38.6663],[174.9567,-38.6647],[174.9643,-38.6968],[174.9348,-38.7306],[174.9378,-38.7502],[174.8629,-38.7746],[174.7942,-38.731],[174.7535,-38.7448],[174.6169,-38.7229],[174.6152,-38.706],[174.3514,-38.7017],[174.3752,-38.5824],[174.3813,-38.3531],[174.4062,-38.2959],[174.4514,-38.2472],[174.4517,-38.2096],[174.4266,-38.1385],[174.3688,-38.0965],[174.332,-38.0466],[174.3157,-37.9473],[174.3399,-37.8831],[174.3786,-37.8381],[174.4481,-37.7949],[174.5318,-37.7733],[174.5619,-37.728],[174.4815,-37.5963],[174.4474,-37.41],[174.4256,-37.3635],[174.6592,-37.2926],[174.6997,-37.2615],[174.7389,-37.2679],[174.8063,-37.2268],[174.8481,-37.2342],[174.8504,-37.2512],[174.8868,-37.2306],[174.9308,-37.2331],[174.9299,-37.2062],[174.948,-37.1957],[174.9732,-37.1948],[174.9903,-37.2166],[175.0545,-37.1808],[175.0738,-37.1947],[175.0896,-37.1795],[175.1307,-37.1864],[175.1539,-37.1361],[175.1408,-37.0987],[175.1608,-37.0159],[175.1848,-37.0408],[175.3886,-37.0219],[175.3793,-36.9626],[175.311,-36.8384],[175.2666,-36.7038],[175.1631,-36.5239],[175.251,-36.3997],[175.4169,-36.3799],[175.6281,-36.385],[175.9033,-36.2583],[175.9881,-36.3211],[176.0329,-36.4028],[176.0961,-36.434],[176.1504,-36.4858],[176.1969,-36.6142],[176.1663,-36.7312],[176.2956,-36.8105],[176.3487,-36.8936],[175.9404,-37.3734],[175.9166,-37.3793],[175.9245,-37.4044],[175.9039,-37.4057],[175.9135,-37.4256],[175.8609,-37.4611],[175.8993,-37.4957],[175.8656,-37.5004],[175.8328,-37.4716],[175.8135,-37.4849],[175.806,-37.5107],[175.831,-37.5368],[175.8117,-37.5643],[175.8415,-37.6133],[175.8408,-37.6419],[175.9276,-37.7762],[175.9059,-37.8286],[175.935,-37.8426],[175.9363,-37.8814],[175.9718,-37.8828],[175.9542,-37.9019],[175.9772,-37.9137],[175.9414,-37.9278],[175.9494,-37.9567],[175.9715,-37.9864],[176.0132,-37.9935],[176.0623,-38.0268],[176.0765,-38.0892],[176.0635,-38.0953],[176.09,-38.167],[176.1101,-38.1669],[176.1503,-38.2182],[176.1905,-38.1959],[176.2217,-38.238],[176.2811,-38.2189],[176.3905,-38.323],[176.4403,-38.3134],[176.447,-38.3565],[176.4688,-38.359],[176.5053,-38.4022],[176.4752,-38.5444],[176.2551,-38.8082],[176.2584,-38.89],[176.2426,-38.9172],[176.2576,-38.9479],[176.1457,-39.04],[176.1785,-39.0663],[176.1728,-39.0785],[176.1135,-39.0912],[176.0879,-39.1297],[176.0231,-39.0829],[175.9888,-39.1159],[175.9642,-39.18],[175.886,-39.2059],[175.8927,-39.2236],[175.8547,-39.2444],[175.8681,-39.263],[175.8126,-39.3003],[175.7518,-39.2879],[175.6692,-39.2969],[175.5579,-39.276],[175.6347,-39.1584],[175.6478,-39.1001],[175.6187,-39.0826],[175.6136,-39.0506],[175.6358,-39.0453],[175.682,-38.9797],[175.5626,-38.9868],[175.5694,-38.9701],[175.554,-38.9566],[175.58,-38.9107],[175.5447,-38.8644],[175.5776,-38.8255],[175.5185,-38.7511],[175.5796,-38.6818],[175.5759,-38.6499],[175.6286,-38.6006],[175.6369,-38.5525],[175.6122,-38.4876],[175.5655,-38.4945],[175.5382,-38.4703]]]},"properties":{"REGC2025_V1_00_NAME":"Waikato Region"}},{"type":"Feature","geometry":{"type":"Polygon","coordinates":[[[176.2669,-38.2143],[176.2322,-38.2391],[176.1905,-38.1959],[176.1503,-38.2182],[176.0828,-38.1531],[176.0623,-38.0268],[176.0132,-37.9935],[175.9715,-37.9864],[175.9529,-37.9623],[175.9409,-37.9294],[175.9772,-37.9137],[175.9542,-37.9019],[175.9718,-37.8828],[175.9363,-37.8814],[175.935,-37.8426],[175.9059,-37.8286],[175.9276,-37.7762],[175.8336,-37.6275],[175.8415,-37.6133],[175.8113,-37.5608],[175.8308,-37.5356],[175.8059,-37.508],[175.8328,-37.4716],[175.8656,-37.5004],[175.8993,-37.4957],[175.8609,-37.4611],[175.9135,-37.4256],[175.9039,-37.4057],[175.9245,-37.4044],[175.9166,-37.3793],[175.9404,-37.3734],[176.3487,-36.8936],[176.3519,-36.9884],[176.3134,-37.0668],[176.4114,-37.0985],[176.4877,-37.1596],[176.5299,-37.252],[176.5146,-37.3531],[176.7197,-37.4786],[176.8086,-37.6231],[176.9502,-37.6226],[176.889,-37.5442],[176.8785,-37.4505],[176.924,-37.3612],[177.0208,-37.2969],[177.1106,-37.2764],[177.2064,-37.2843],[177.2799,-37.3134],[177.3928,-37.3898],[177.4443,-37.4816],[177.4379,-37.5818],[177.3999,-37.644],[177.3408,-37.6941],[177.2723,-37.7245],[177.1904,-37.7366],[177.2237,-37.7838],[177.2475,-37.79],[177.3114,-37.7893],[177.3487,-37.766],[177.5447,-37.5388],[177.6172,-37.4956],[177.7023,-37.476],[177.8379,-37.3685],[177.9414,-37.3355],[178.0649,-37.3381],[178.0853,-37.5424],[178.1076,-37.5987],[177.9801,-37.6132],[177.9982,-37.6897],[177.9768,-37.7409],[177.9945,-37.7644],[178.0388,-37.7331],[178.073,-37.7636],[177.9723,-37.845],[177.861,-38.1117],[177.7244,-38.0226],[177.6811,-38.0124],[177.6743,-38.0249],[177.6975,-38.0627],[177.6767,-38.0866],[177.7033,-38.1064],[177.6641,-38.1169],[177.6536,-38.1586],[177.6024,-38.1712],[177.6048,-38.1866],[177.5333,-38.2184],[177.501,-38.2134],[177.4818,-38.2399],[177.4976,-38.2608],[177.4637,-38.3335],[177.2369,-38.4263],[177.2545,-38.5132],[177.2409,-38.5102],[177.2258,-38.5341],[177.2025,-38.5243],[177.167,-38.5778],[177.1201,-38.5853],[177.0997,-38.6274],[177.0779,-38.6106],[177.0459,-38.6209],[176.9716,-38.7047],[176.9292,-38.6982],[176.8868,-38.6665],[176.8225,-38.6914],[176.7733,-38.6845],[176.7429,-38.7278],[176.7141,-38.7279],[176.7079,-38.789],[176.692,-38.8063],[176.7041,-38.8271],[176.6967,-38.8564],[176.6784,-38.8556],[176.6517,-38.822],[176.5897,-38.8353],[176.5606,-38.8002],[176.5199,-38.7971],[176.4953,-38.8814],[176.4417,-38.9203],[176.4682,-38.9415],[176.4348,-38.9689],[176.4553,-38.9891],[176.448,-39.0041],[176.3809,-38.9881],[176.3582,-38.9584],[176.3321,-38.9525],[176.3114,-38.9027],[176.2584,-38.89],[176.2551,-38.8082],[176.4752,-38.5444],[176.5053,-38.4022],[176.4688,-38.359],[176.447,-38.3565],[176.4403,-38.3134],[176.3906,-38.323],[176.2669,-38.2143]]]},"properties":{"REGC2025_V1_00_NAME":"Bay of Plenty Region"}},{"type":"Feature","geometry":{"type":"Polygon","coordinates":[[[177.899,-38.9718],[177.8369,-38.956],[177.8445,-38.9215],[177.8047,-38.9118],[177.799,-38.8944],[177.7761,-38.9128],[177.7492,-38.8967],[177.7289,-38.9188],[177.7217,-38.8983],[177.6602,-38.9047],[177.6624,-38.8458],[177.6375,-38.8711],[177.6261,-38.8434],[177.5998,-38.8519],[177.5931,-38.8031],[177.5306,-38.8197],[177.5313,-38.7916],[177.4699,-38.7554],[177.4662,-38.7056],[177.4088,-38.6994],[177.4478,-38.6359],[177.3534,-38.6246],[177.309,-38.5969],[177.3076,-38.6597],[177.1222,-38.5839],[177.1668,-38.5779],[177.2025,-38.5243],[177.2258,-38.5341],[177.2409,-38.5102],[177.2549,-38.5127],[177.2369,-38.4263],[177.4637,-38.3335],[177.4976,-38.2608],[177.4818,-38.2399],[177.501,-38.2134],[177.5604,-38.2094],[177.6048,-38.1866],[177.6024,-38.1712],[177.6536,-38.1586],[177.6641,-38.1169],[177.7033,-38.1064],[177.6767,-38.0866],[177.6975,-38.0627],[177.6743,-38.0249],[177.6811,-38.0124],[177.7244,-38.0226],[177.861,-38.1117],[177.9723,-37.845],[178.073,-37.7636],[178.0388,-37.7331],[177.9945,-37.7644],[177.9768,-37.7409],[177.9982,-37.6897],[177.9801,-37.6132],[178.1076,-37.5987],[178.0853,-37.5424],[178.0649,-37.3381],[178.2441,-37.3342],[178.414,-37.3708],[178.5238,-37.4386],[178.7469,-37.5322],[178.8043,-37.5877],[178.8332,-37.6532],[178.816,-37.7642],[178.7041,-37.8777],[178.6298,-38.0303],[178.6163,-38.2245],[178.6317,-38.3113],[178.5972,-38.4665],[178.5548,-38.5357],[178.538,-38.604],[178.4892,-38.6751],[178.355,-38.7867],[178.1737,-38.8947],[178.1663,-38.9463],[178.2268,-39.0016],[177.899,-38.9718]]]},"properties":{"REGC2025_V1_00_NAME":"Gisborne Region"}},{"type":"Feature","geometry":{"type":"Polygon","coordinates":[[[177.3193,-39.4305],[177.3569,-39.6535],[177.3416,-39.7114],[177.288,-39.7893],[177.2847,-39.8889],[177.1625,-40.0555],[177.1555,-40.1201],[177.1178,-40.2092],[176.9918,-40.352],[176.9179,-40.3996],[176.8921,-40.4931],[176.6226,-40.428],[176.5873,-40.4313],[176.5588,-40.4072],[176.55,-40.4212],[176.4929,-40.4001],[176.4916,-40.4119],[176.4603,-40.4116],[176.3915,-40.3778],[176.3919,-40.3617],[176.3706,-40.3586],[176.4057,-40.333],[176.3889,-40.323],[176.3992,-40.2849],[176.3781,-40.2725],[176.3803,-40.2374],[176.3587,-40.198],[176.3787,-40.1581],[176.3132,-40.1239],[176.3209,-40.0856],[176.2638,-40.0627],[176.2388,-40.0273],[176.1543,-40.0122],[176.1366,-40.0286],[176.0938,-39.9955],[176.1211,-39.9624],[176.1068,-39.9171],[176.1261,-39.9048],[176.1172,-39.8868],[176.1769,-39.744],[176.1691,-39.7179],[176.2009,-39.673],[176.1651,-39.6487],[176.179,-39.6053],[176.1425,-39.5799],[176.1823,-39.5424],[176.194,-39.5051],[176.1369,-39.4759],[176.144,-39.4485],[176.1214,-39.4344],[176.1116,-39.3847],[176.0688,-39.3923],[176.0438,-39.372],[176.1218,-39.3271],[176.1024,-39.3152],[176.0807,-39.26],[176.1155,-39.2188],[176.075,-39.2109],[176.0904,-39.2],[176.0868,-39.1804],[176.1029,-39.1765],[176.0846,-39.1308],[176.1135,-39.0912],[176.1728,-39.0785],[176.1765,-39.0636],[176.1449,-39.0412],[176.2576,-38.9479],[176.2429,-38.9203],[176.2506,-38.8917],[176.3102,-38.902],[176.3342,-38.9544],[176.3582,-38.9584],[176.3816,-38.9885],[176.448,-39.0041],[176.4553,-38.9891],[176.4348,-38.9689],[176.4682,-38.9415],[176.4417,-38.9203],[176.4953,-38.8814],[176.5199,-38.7971],[176.5606,-38.8002],[176.5897,-38.8353],[176.6517,-38.822],[176.6784,-38.8556],[176.6967,-38.8564],[176.7041,-38.8271],[176.692,-38.8063],[176.7079,-38.789],[176.7141,-38.7279],[176.7429,-38.7278],[176.7733,-38.6845],[176.8225,-38.6914],[176.8868,-38.6665],[176.9292,-38.6982],[176.9714,-38.7048],[177.046,-38.6208],[177.0779,-38.6106],[177.1003,-38.627],[177.1222,-38.5839],[177.3076,-38.6597],[177.309,-38.5969],[177.3534,-38.6246],[177.4479,-38.6359],[177.4088,-38.6994],[177.4662,-38.7056],[177.4699,-38.7554],[177.5313,-38.7916],[177.5306,-38.8197],[177.5931,-38.8031],[177.5998,-38.8519],[177.6261,-38.8434],[177.6369,-38.8711],[177.6624,-38.8458],[177.6602,-38.9047],[177.7217,-38.8983],[177.7289,-38.9188],[177.7492,-38.8967],[177.7761,-38.9128],[177.799,-38.8944],[177.8047,-38.9118],[177.8445,-38.9215],[177.8348,-38.9528],[177.8609,-38.9652],[178.2268,-39.0016],[178.2571,-39.0643],[178.2621,-39.1245],[178.2449,-39.1808],[178.2022,-39.2407],[178.1893,-39.3413],[178.1264,-39.4157],[178.0098,-39.4766],[177.8632,-39.5084],[177.7218,-39.4738],[177.6268,-39.3882],[177.59,-39.2546],[177.4311,-39.2662],[177.2955,-39.3096],[177.3193,-39.4305]]]},"properties":{"REGC2025_V1_00_NAME":"Hawke's Bay Region"}},{"type":"Feature","geometry":{"type":"Polygon","coordinates":[[[174.105,-39.7833],[173.9027,-39.7442],[173.7667,-39.6896],[173.577,-39.5244],[173.5298,-39.4475],[173.4926,-39.3097],[173.5054,-39.216],[173.5721,-39.0878],[173.6472,-39.0218],[173.8738,-38.8773],[174.1239,-38.7948],[174.283,-38.7822],[174.3489,-38.732],[174.3514,-38.7017],[174.6152,-38.706],[174.6169,-38.7229],[174.7535,-38.7448],[174.7942,-38.731],[174.8629,-38.7746],[174.82,-38.787],[174.8078,-38.82],[174.7866,-38.821],[174.8321,-38.9151],[174.7843,-38.9206],[174.7809,-38.9606],[174.7995,-38.9714],[174.7655,-38.9882],[174.7927,-39.0635],[174.7575,-39.088],[174.7416,-39.0767],[174.7223,-39.1067],[174.6752,-39.1298],[174.702,-39.1488],[174.7,-39.2057],[174.7521,-39.2253],[174.7566,-39.2899],[174.7831,-39.2876],[174.8228,-39.334],[174.8874,-39.3537],[174.8836,-39.3847],[174.8659,-39.3891],[174.8874,-39.4147],[174.8846,-39.4355],[174.9285,-39.4762],[174.9673,-39.4848],[174.9703,-39.5254],[174.9918,-39.5403],[174.9676,-39.6053],[174.9697,-39.6463],[174.988,-39.6654],[174.9299,-39.6829],[174.9179,-39.7497],[174.8945,-39.7472],[174.8345,-39.8005],[174.803,-39.8031],[174.7934,-39.8336],[174.7663,-39.8529],[174.7841,-39.858],[174.7172,-40.069],[174.6311,-40.0557],[174.4268,-39.9892],[174.2799,-39.9065],[174.1588,-39.8037],[174.105,-39.7833]]]},"properties":{"REGC2025_V1_00_NAME":"Taranaki Region"}},{"type":"Feature","geometry":{"type":"Polygon","coordinates":[[[175.4734,-40.6934],[175.4342,-40.7464],[175.3715,-40.7268],[175.3464,-40.7522],[175.3283,-40.7442],[175.2689,-40.7687],[175.2132,-40.7632],[175.1882,-40.7451],[175.2065,-40.7321],[175.1707,-40.7107],[174.8514,-40.6286],[174.8939,-40.6224],[174.9416,-40.5012],[174.9663,-40.3682],[174.9499,-40.2396],[174.8602,-40.1271],[174.7703,-40.0671],[174.7172,-40.069],[174.7841,-39.858],[174.7663,-39.8529],[174.7934,-39.8336],[174.803,-39.8031],[174.8345,-39.8005],[174.8945,-39.7472],[174.9179,-39.7497],[174.9299,-39.6829],[174.9874,-39.6663],[174.9697,-39.6463],[174.9676,-39.6053],[174.9918,-39.5403],[174.9703,-39.5254],[174.9673,-39.4848],[174.9285,-39.4762],[174.8846,-39.4355],[174.8874,-39.4147],[174.8659,-39.3891],[174.8794,-39.3902],[174.8916,-39.3581],[174.8228,-39.334],[174.7831,-39.2876],[174.7566,-39.2899],[174.7521,-39.2253],[174.7,-39.2057],[174.702,-39.1488],[174.6752,-39.1298],[174.7223,-39.1067],[174.7416,-39.0767],[174.7575,-39.088],[174.7927,-39.0635],[174.7655,-38.9882],[174.7995,-38.9714],[174.7809,-38.9606],[174.7843,-38.9206],[174.8321,-38.9151],[174.7866,-38.821],[174.8078,-38.82],[174.82,-38.787],[174.9378,-38.7502],[174.9348,-38.7306],[174.9643,-38.6968],[174.9562,-38.6651],[175.0005,-38.6663],[175.1164,-38.6219],[175.2224,-38.6365],[175.2851,-38.588],[175.3019,-38.5992],[175.303,-38.5715],[175.3247,-38.5514],[175.3355,-38.5815],[175.3778,-38.5727],[175.3835,-38.5418],[175.4151,-38.5281],[175.4392,-38.4926],[175.5421,-38.4806],[175.5382,-38.4703],[175.5655,-38.4945],[175.6122,-38.4876],[175.6369,-38.5525],[175.6286,-38.6006],[175.5759,-38.6499],[175.5796,-38.6818],[175.5185,-38.7511],[175.5776,-38.8255],[175.5447,-38.8644],[175.58,-38.9107],[175.554,-38.9566],[175.5694,-38.9701],[175.5626,-38.9868],[175.682,-38.9797],[175.6358,-39.0453],[175.6136,-39.0506],[175.6187,-39.0826],[175.6478,-39.1001],[175.6347,-39.1584],[175.5579,-39.276],[175.6692,-39.2969],[175.7518,-39.2879],[175.8126,-39.3003],[175.8681,-39.263],[175.8547,-39.2444],[175.8927,-39.2236],[175.886,-39.2059],[175.9642,-39.18],[175.9889,-39.1158],[176.0314,-39.0782],[176.0325,-39.0995],[176.0857,-39.1294],[176.1011,-39.1699],[176.075,-39.2109],[176.1153,-39.2232],[176.0807,-39.26],[176.1024,-39.3152],[176.1218,-39.3267],[176.0431,-39.3814],[176.1112,-39.3844],[176.1214,-39.4344],[176.144,-39.4485],[176.1369,-39.4759],[176.194,-39.5051],[176.1823,-39.5424],[176.1425,-39.5799],[176.179,-39.6053],[176.1651,-39.6487],[176.2009,-39.673],[176.1691,-39.7179],[176.1769,-39.744],[176.1172,-39.8868],[176.1261,-39.9048],[176.1068,-39.9171],[176.1211,-39.9624],[176.0938,-39.9955],[176.1366,-40.0286],[176.1543,-40.0122],[176.2388,-40.0273],[176.2638,-40.0627],[176.3209,-40.0856],[176.3132,-40.1239],[176.3787,-40.1581],[176.3587,-40.198],[176.3803,-40.2374],[176.3781,-40.2725],[176.3992,-40.2849],[176.3889,-40.323],[176.4057,-40.333],[176.3706,-40.3586],[176.3919,-40.3617],[176.3915,-40.3778],[176.4603,-40.4116],[176.4916,-40.4119],[176.4929,-40.4001],[176.55,-40.4212],[176.5588,-40.4072],[176.5873,-40.4313],[176.6226,-40.428],[176.8921,-40.4931],[176.8678,-40.5677],[176.8298,-40.6168],[176.7725,-40.6573],[176.6913,-40.6854],[176.5641,-40.8111],[176.3324,-40.6977],[176.2855,-40.6979],[176.2738,-40.68],[176.2375,-40.6802],[176.2106,-40.6588],[176.1625,-40.6822],[176.0937,-40.6752],[176.082,-40.7157],[176.0172,-40.7056],[175.974,-40.7229],[175.9755,-40.7383],[175.9434,-40.7407],[175.935,-40.7668],[175.9099,-40.7509],[175.8716,-40.7779],[175.8495,-40.7616],[175.8269,-40.7609],[175.8109,-40.7796],[175.7647,-40.7681],[175.7907,-40.7256],[175.7701,-40.6989],[175.7542,-40.7093],[175.7524,-40.6974],[175.6907,-40.6966],[175.6937,-40.7163],[175.6277,-40.7528],[175.4734,-40.6934]]]},"properties":{"REGC2025_V1_00_NAME":"Manawatū-Whanganui Region"}},{"type":"Feature","geometry":{"type":"Polygon","coordinates":[[[174.9825,-41.6783],[174.5159,-41.5184],[174.4294,-41.4574],[174.413,-41.4694],[174.388,-41.4272],[174.5148,-41.2157],[174.6202,-40.806],[174.7099,-40.7027],[174.7699,-40.658],[174.8514,-40.6286],[175.1707,-40.7107],[175.2065,-40.7321],[175.1887,-40.743],[175.193,-40.7573],[175.2678,-40.7687],[175.3283,-40.7442],[175.3468,-40.7521],[175.3715,-40.7268],[175.4343,-40.7464],[175.4734,-40.6934],[175.6277,-40.7528],[175.6937,-40.7163],[175.6907,-40.6966],[175.7524,-40.6974],[175.7542,-40.7093],[175.7701,-40.6989],[175.7907,-40.7256],[175.7647,-40.7681],[175.8109,-40.7796],[175.8269,-40.7609],[175.8716,-40.7779],[175.9099,-40.7509],[175.935,-40.7668],[175.9434,-40.7407],[175.9755,-40.7383],[175.974,-40.7229],[176.0172,-40.7056],[176.082,-40.7157],[176.0937,-40.6752],[176.1625,-40.6822],[176.2106,-40.6588],[176.2375,-40.6802],[176.2738,-40.68],[176.2855,-40.6979],[176.3324,-40.6977],[176.5641,-40.8111],[176.5221,-40.8564],[176.4616,-40.9996],[176.3625,-41.0963],[176.2912,-41.2807],[176.1095,-41.4195],[176.0718,-41.477],[176.0126,-41.522],[175.8401,-41.584],[175.7565,-41.648],[175.5626,-41.748],[175.343,-41.8114],[175.2089,-41.8119],[175.1171,-41.7925],[175.0324,-41.7433],[174.9825,-41.6783]]]},"properties":{"REGC2025_V1_00_NAME":"Wellington Region"}},{"type":"Feature","geometry":{"type":"Polygon","coordinates":[[[172.2994,-42.4225],[172.2788,-42.4499],[172.2357,-42.4565],[172.2271,-42.4795],[172.1869,-42.5039],[172.1741,-42.5392],[172.1328,-42.5553],[172.099,-42.5923],[172.0939,-42.6209],[171.9742,-42.6392],[171.9723,-42.6535],[171.9257,-42.6664],[171.8851,-42.7187],[171.8844,-42.7497],[171.8126,-42.79],[171.764,-42.7915],[171.7627,-42.8371],[171.733,-42.8534],[171.7464,-42.8741],[171.7101,-42.9038],[171.6869,-42.9061],[171.6652,-42.8863],[171.6341,-42.9026],[171.5869,-42.8957],[171.5172,-42.9142],[171.491,-42.8959],[171.4423,-42.9137],[171.4375,-42.9357],[171.396,-42.9593],[171.3932,-42.9426],[171.3622,-42.9372],[171.3142,-42.9481],[171.3084,-42.9662],[171.2377,-43.0025],[171.2407,-43.031],[171.2196,-43.0647],[171.1172,-43.0857],[171.1054,-43.1121],[171.0797,-43.102],[171.0374,-43.1459],[171.0473,-43.1636],[171.02,-43.1745],[170.9917,-43.2176],[170.9485,-43.2273],[170.9482,-43.206],[170.9287,-43.2065],[170.8731,-43.2458],[170.8603,-43.2814],[170.7598,-43.3183],[170.7053,-43.3188],[170.7161,-43.3432],[170.6467,-43.3693],[170.6566,-43.3869],[170.6329,-43.3968],[170.6151,-43.4319],[170.53,-43.4099],[170.4755,-43.433],[170.4592,-43.4613],[170.395,-43.4982],[170.3566,-43.5063],[170.3287,-43.4816],[170.2382,-43.5139],[170.1398,-43.5894],[170.0932,-43.5996],[170.0951,-43.6556],[170.0285,-43.6908],[170.0305,-43.7232],[169.9788,-43.7471],[169.9671,-43.7913],[169.9433,-43.7892],[169.9,-43.813],[169.8944,-43.8337],[169.8582,-43.8371],[169.8379,-43.8666],[169.7709,-43.8993],[169.7583,-43.9337],[169.72,-43.9599],[169.5926,-43.9582],[169.5787,-44.0343],[169.4626,-44.0593],[169.3868,-44.1188],[169.3386,-44.1024],[169.309,-44.0606],[169.2908,-44.0627],[169.2573,-44.1081],[169.1597,-44.1049],[169.1459,-44.0799],[169.0736,-44.1096],[169.0132,-44.1149],[169.0159,-44.1308],[168.9751,-44.144],[168.9874,-44.1689],[168.9652,-44.1738],[168.9592,-44.2058],[168.9109,-44.2098],[168.8494,-44.2461],[168.8573,-44.2697],[168.8323,-44.3508],[168.7534,-44.3922],[168.7425,-44.421],[168.6867,-44.3919],[168.5861,-44.4538],[168.5235,-44.4604],[168.4609,-44.4954],[168.3345,-44.4968],[168.3661,-44.4244],[168.3518,-44.4042],[168.4117,-44.3637],[168.3684,-44.3545],[168.3814,-44.3381],[168.3482,-44.3291],[168.3454,-44.2821],[168.2503,-44.2551],[168.1577,-44.2822],[168.0521,-44.2586],[167.8381,-44.1271],[168.0308,-44.0108],[168.1378,-43.8891],[168.2003,-43.8443],[168.2988,-43.8099],[168.4219,-43.801],[168.6205,-43.7544],[168.7521,-43.6837],[168.923,-43.6425],[169.0404,-43.5596],[169.2329,-43.4694],[169.4868,-43.393],[169.6189,-43.2681],[169.7084,-43.2197],[169.8015,-43.1966],[169.9751,-43.0671],[170.0924,-42.9497],[170.2035,-42.9117],[170.3029,-42.855],[170.4626,-42.8162],[170.609,-42.7347],[170.7378,-42.5949],[170.8576,-42.5054],[170.9204,-42.424],[170.9777,-42.281],[171.0461,-42.1965],[171.0655,-42.061],[171.145,-41.9143],[171.1859,-41.8122],[171.19,-41.7136],[171.2438,-41.6167],[171.3004,-41.5675],[171.3776,-41.5338],[171.4643,-41.521],[171.598,-41.5269],[171.642,-41.5021],[171.7584,-41.3377],[171.8232,-41.2807],[171.839,-41.1729],[171.8337,-40.8702],[171.9077,-40.7409],[172.0307,-40.6284],[172.2481,-40.8049],[172.234,-40.8694],[172.2614,-40.8587],[172.2883,-40.8756],[172.2815,-40.8989],[172.3019,-40.9245],[172.3766,-40.935],[172.3863,-40.9501],[172.3704,-40.9704],[172.3106,-41.0118],[172.3337,-41.035],[172.3248,-41.0595],[172.3503,-41.0634],[172.3825,-41.0226],[172.4194,-41.0336],[172.4914,-41.0226],[172.492,-41.0647],[172.5133,-41.0669],[172.5197,-41.0956],[172.5529,-41.1024],[172.6185,-41.1604],[172.6289,-41.1948],[172.6731,-41.1882],[172.6921,-41.2001],[172.6579,-41.2392],[172.5746,-41.258],[172.6003,-41.3009],[172.5843,-41.3763],[172.5124,-41.4128],[172.4612,-41.3944],[172.4161,-41.4124],[172.4311,-41.429],[172.4189,-41.4706],[172.343,-41.5115],[172.3276,-41.6035],[172.291,-41.6348],[172.2644,-41.6273],[172.2374,-41.6402],[172.2524,-41.7018],[172.2136,-41.689],[172.1553,-41.6997],[172.119,-41.7255],[172.1179,-41.7562],[172.0973,-41.7742],[172.1163,-41.7892],[172.1157,-41.8684],[172.0938,-41.8744],[172.0929,-41.8919],[172.0654,-41.8944],[172.0774,-41.9205],[172.0506,-41.9523],[172.07,-41.9645],[172.081,-42.0077],[172.12,-42.0146],[172.1049,-42.0489],[172.1352,-42.104],[172.2067,-42.0983],[172.2056,-42.1145],[172.2477,-42.1324],[172.2515,-42.1503],[172.3335,-42.1491],[172.3494,-42.2223],[172.3342,-42.2448],[172.3543,-42.2558],[172.3557,-42.281],[172.4309,-42.3056],[172.4536,-42.2748],[172.4792,-42.2774],[172.4433,-42.3669],[172.3483,-42.3914],[172.2994,-42.4225]]]},"properties":{"REGC2025_V1_00_NAME":"West Coast Region"}},{"type":"Feature","geometry":{"type":"Polygon","coordinates":[[[172.6917,-42.1066],[172.7215,-42.1035],[172.7292,-42.1654],[172.7938,-42.1617],[172.8069,-42.1895],[172.8321,-42.1845],[172.8266,-42.2482],[172.8635,-42.2562],[172.8423,-42.2896],[172.8469,-42.3079],[172.915,-42.3093],[172.9196,-42.3459],[172.9438,-42.3513],[172.9414,-42.3778],[173.0029,-42.3933],[172.9695,-42.4487],[173.0145,-42.4463],[173.0534,-42.4881],[173.1063,-42.4477],[173.1523,-42.4496],[173.1643,-42.4185],[173.2207,-42.3801],[173.2238,-42.3567],[173.2433,-42.3561],[173.1832,-42.3368],[173.2959,-42.2658],[173.2965,-42.248],[173.3333,-42.2466],[173.3415,-42.2279],[173.3511,-42.2427],[173.3732,-42.2368],[173.3687,-42.224],[173.4375,-42.214],[173.4645,-42.1957],[173.464,-42.1798],[173.4841,-42.1815],[173.4631,-42.1178],[173.4865,-42.1104],[173.4991,-42.0787],[173.5468,-42.0698],[173.5551,-42.0459],[173.5945,-42.0293],[173.6097,-42.0045],[173.6381,-42.0094],[173.6632,-41.9821],[173.7202,-41.9608],[173.7143,-41.9405],[173.7444,-41.9074],[173.7621,-41.9119],[173.7895,-41.9582],[173.8173,-41.933],[173.9588,-41.9085],[173.9772,-41.9334],[174.0494,-41.9291],[174.0634,-41.9347],[174.0477,-41.9682],[174.2641,-42.0992],[174.2079,-42.1467],[174.2009,-42.2121],[174.1642,-42.274],[173.9949,-42.4117],[173.9853,-42.476],[173.9503,-42.5329],[173.8615,-42.5991],[173.7704,-42.6298],[173.716,-42.6965],[173.5612,-42.9724],[173.4628,-43.0756],[173.3233,-43.1536],[173.2309,-43.2299],[173.0063,-43.2958],[172.9844,-43.354],[172.9889,-43.4247],[173.1622,-43.4684],[173.2316,-43.5014],[173.3373,-43.5863],[173.3925,-43.6806],[173.4071,-43.7449],[173.3981,-43.8279],[173.3482,-43.9265],[173.286,-43.9868],[173.1311,-44.0671],[172.9645,-44.1016],[172.744,-44.081],[172.6228,-44.0321],[172.4012,-44.0573],[172.1383,-44.1408],[171.6161,-44.3758],[171.5445,-44.4261],[171.5236,-44.5115],[171.4415,-44.6269],[171.454,-44.8605],[171.4068,-45.0154],[171.1158,-44.9295],[170.8411,-44.8914],[170.8411,-44.9035],[170.6482,-44.9124],[170.6276,-44.9336],[170.6369,-44.9513],[170.6146,-44.9667],[170.5794,-44.9655],[170.481,-45.0473],[170.3894,-45.0795],[170.3494,-45.0217],[170.3473,-44.9896],[170.3734,-44.9524],[170.3491,-44.9431],[170.3502,-44.9078],[170.3194,-44.903],[170.3017,-44.9195],[170.252,-44.9188],[170.1645,-44.946],[170.0941,-44.94],[170.0687,-44.9232],[170.0819,-44.9121],[170.0638,-44.8836],[170.0309,-44.8701],[169.998,-44.8251],[169.9442,-44.654],[169.8913,-44.6443],[169.8362,-44.6689],[169.8056,-44.6613],[169.7549,-44.6389],[169.7572,-44.6121],[169.7306,-44.5651],[169.7085,-44.601],[169.641,-44.596],[169.6407,-44.5648],[169.6634,-44.5372],[169.6343,-44.5018],[169.6419,-44.4664],[169.5425,-44.4486],[169.5788,-44.3401],[169.5684,-44.3194],[169.5806,-44.2523],[169.5433,-44.2075],[169.6058,-44.1585],[169.5989,-44.1503],[169.6387,-44.1199],[169.665,-44.0677],[169.682,-44.0684],[169.686,-44.0419],[169.7194,-44.0367],[169.6993,-43.9635],[169.7583,-43.9337],[169.7709,-43.8993],[169.8379,-43.8666],[169.8584,-43.837],[169.8943,-43.8337],[169.9,-43.813],[169.9727,-43.7873],[169.9788,-43.7471],[170.0305,-43.7232],[170.0285,-43.6908],[170.0951,-43.6556],[170.0981,-43.5955],[170.1398,-43.5894],[170.2288,-43.519],[170.3285,-43.4817],[170.3566,-43.5063],[170.395,-43.4982],[170.4592,-43.4613],[170.4755,-43.433],[170.5297,-43.41],[170.6151,-43.4319],[170.6329,-43.3968],[170.6566,-43.3869],[170.6467,-43.3693],[170.7161,-43.3432],[170.7053,-43.3188],[170.7598,-43.3183],[170.8603,-43.2814],[170.8731,-43.2458],[170.9287,-43.2065],[170.9482,-43.206],[170.9485,-43.2273],[170.9917,-43.2176],[171.02,-43.1745],[171.0473,-43.1636],[171.0374,-43.1459],[171.0797,-43.102],[171.1054,-43.1121],[171.1172,-43.0857],[171.2196,-43.0647],[171.2407,-43.031],[171.2377,-43.0025],[171.3084,-42.9662],[171.3142,-42.9481],[171.3622,-42.9372],[171.3932,-42.9426],[171.396,-42.9593],[171.4375,-42.9357],[171.4423,-42.9137],[171.491,-42.8959],[171.5172,-42.9142],[171.5869,-42.8957],[171.6341,-42.9026],[171.6652,-42.8863],[171.6869,-42.9061],[171.7101,-42.9038],[171.7464,-42.8741],[171.733,-42.8534],[171.7627,-42.8371],[171.764,-42.7915],[171.8126,-42.79],[171.8844,-42.7497],[171.8851,-42.7187],[171.9257,-42.6664],[171.9723,-42.6535],[171.9742,-42.6392],[172.0939,-42.6209],[172.1085,-42.5805],[172.1783,-42.5355],[172.1869,-42.5039],[172.2271,-42.4795],[172.2359,-42.4564],[172.2788,-42.4499],[172.3472,-42.3918],[172.4433,-42.3669],[172.4785,-42.2729],[172.5152,-42.264],[172.5594,-42.22],[172.6162,-42.1942],[172.6097,-42.1658],[172.6409,-42.1329],[172.6356,-42.1024],[172.6784,-42.0879],[172.6917,-42.1066]]]},"properties":{"REGC2025_V1_00_NAME":"Canterbury Region"}},{"type":"Feature","geometry":{"type":"Polygon","coordinates":[[[170.6369,-44.9513],[170.6277,-44.9335],[170.6589,-44.9092],[170.8824,-44.891],[171.0001,-44.9212],[171.1158,-44.9295],[171.4068,-45.0154],[171.3273,-45.1232],[171.1398,-45.3099],[171.1523,-45.3709],[171.1393,-45.4554],[171.0847,-45.5682],[171.0076,-45.636],[170.9878,-45.676],[171.0223,-45.7316],[171.0379,-45.7947],[171.0334,-45.9003],[171.0077,-45.9595],[170.9253,-46.0315],[170.7756,-46.0928],[170.4821,-46.1411],[170.4463,-46.2253],[170.3952,-46.2828],[170.1158,-46.4536],[170.0991,-46.5202],[170.0593,-46.5716],[169.877,-46.6779],[169.7003,-46.7623],[169.4447,-46.8296],[169.3421,-46.8392],[169.2649,-46.5859],[169.1905,-46.5569],[169.2254,-46.5499],[169.2503,-46.5133],[169.1734,-46.487],[169.1633,-46.4577],[169.1968,-46.4388],[169.196,-46.4044],[169.1341,-46.3754],[169.1424,-46.3535],[169.1907,-46.3264],[169.1774,-46.3219],[169.1969,-46.3043],[169.1769,-46.2857],[169.189,-46.2799],[169.1983,-46.2004],[169.167,-46.1919],[169.161,-46.1522],[169.1298,-46.1478],[169.1632,-46.1171],[169.1633,-46.0958],[169.1356,-46.0854],[169.1579,-46.0684],[169.1533,-46.0487],[169.1036,-46.0368],[169.0799,-46.0091],[169.1278,-46.0031],[169.0727,-46.0016],[169.0666,-45.9853],[169.0997,-45.948],[169.0734,-45.9247],[169.0991,-45.8844],[169.0566,-45.8501],[169.0504,-45.864],[169.0043,-45.8597],[169.0289,-45.8089],[169.0035,-45.7958],[168.9934,-45.7285],[169.0054,-45.6984],[169.099,-45.5807],[169.1472,-45.4506],[169.1996,-45.4343],[169.2093,-45.4024],[169.1644,-45.3708],[169.1484,-45.339],[169.0993,-45.3199],[169.0902,-45.2861],[169.0677,-45.269],[168.9596,-45.3591],[168.8869,-45.4628],[168.8588,-45.452],[168.854,-45.4321],[168.8252,-45.4461],[168.7787,-45.4366],[168.7747,-45.3652],[168.6922,-45.3397],[168.6978,-45.3119],[168.6741,-45.2431],[168.5394,-45.3093],[168.3233,-45.3275],[168.3003,-45.2939],[168.307,-45.2604],[168.2882,-45.2449],[168.2996,-45.2212],[168.2515,-45.1995],[168.2394,-45.1544],[168.217,-45.1444],[168.2842,-45.1062],[168.2914,-45.0405],[168.3097,-45.026],[168.2959,-45.0138],[168.2357,-45.0243],[168.1746,-44.981],[168.1761,-44.9663],[168.131,-44.938],[168.1372,-44.9135],[168.1164,-44.8783],[168.1274,-44.8286],[168.1676,-44.8283],[168.2053,-44.7463],[168.1819,-44.7452],[168.1693,-44.722],[168.1925,-44.6807],[168.185,-44.6461],[168.2365,-44.5767],[168.2349,-44.5426],[168.2897,-44.4964],[168.4609,-44.4954],[168.5235,-44.4604],[168.5861,-44.4538],[168.6867,-44.3919],[168.7425,-44.421],[168.7534,-44.3922],[168.8323,-44.3508],[168.8573,-44.2697],[168.8494,-44.2461],[168.9109,-44.2098],[168.9592,-44.2058],[168.9652,-44.1738],[168.9874,-44.1689],[168.9751,-44.144],[169.0159,-44.1308],[169.0134,-44.1148],[169.0736,-44.1096],[169.1459,-44.0799],[169.1597,-44.1049],[169.2573,-44.1081],[169.2908,-44.0627],[169.309,-44.0606],[169.3387,-44.1025],[169.3871,-44.1187],[169.4626,-44.0593],[169.579,-44.0341],[169.5928,-43.9581],[169.671,-43.9554],[169.6993,-43.9635],[169.7194,-44.0367],[169.686,-44.0419],[169.682,-44.0684],[169.665,-44.0677],[169.6387,-44.1199],[169.5989,-44.1503],[169.6058,-44.1585],[169.5431,-44.2083],[169.5806,-44.2523],[169.5684,-44.3194],[169.5788,-44.3401],[169.5425,-44.4486],[169.6419,-44.4664],[169.6343,-44.5018],[169.6634,-44.5372],[169.6407,-44.5648],[169.641,-44.596],[169.7085,-44.601],[169.7306,-44.5651],[169.7572,-44.6121],[169.7549,-44.6389],[169.8056,-44.6613],[169.8362,-44.6689],[169.8913,-44.6443],[169.9442,-44.654],[169.998,-44.8251],[170.0309,-44.8701],[170.0638,-44.8836],[170.0819,-44.9121],[170.0687,-44.9232],[170.0941,-44.94],[170.1645,-44.946],[170.252,-44.9188],[170.3017,-44.9195],[170.3194,-44.903],[170.3502,-44.9078],[170.3491,-44.9431],[170.3734,-44.9524],[170.3473,-44.9896],[170.3494,-45.0217],[170.3872,-45.0788],[170.4361,-45.0718],[170.5424,-44.985],[170.6369,-44.9513]]]},"properties":{"REGC2025_V1_00_NAME":"Otago Region"}},{"type":"Feature","geometry":{"type":"Polygon","coordinates":[[[169.1632,-46.4633],[169.177,-46.4894],[169.2503,-46.5133],[169.2254,-46.5499],[169.1905,-46.5569],[169.2649,-46.5859],[169.3421,-46.8392],[169.2531,-46.8612],[169.0343,-46.8767],[168.8381,-46.869],[168.7237,-46.9555],[168.5441,-47.015],[168.5668,-47.1028],[168.5334,-47.1862],[168.4768,-47.237],[168.3609,-47.2947],[168.1955,-47.3279],[168.1933,-47.4308],[168.1303,-47.5092],[168.1164,-47.5806],[168.0652,-47.6446],[168.0013,-47.6844],[167.9039,-47.7162],[167.8068,-47.7238],[167.713,-47.7101],[167.6275,-47.6748],[167.5652,-47.6233],[167.5298,-47.554],[167.5312,-47.4893],[167.3109,-47.4625],[167.2175,-47.4314],[167.0774,-47.3394],[167.0274,-47.2443],[167.0483,-47.1488],[167.1663,-47.0196],[167.2474,-46.9674],[167.3654,-46.9346],[167.3694,-46.9097],[167.3316,-46.8627],[167.3064,-46.7971],[167.3107,-46.6978],[167.3676,-46.6234],[167.5408,-46.5306],[167.5334,-46.5128],[167.2924,-46.4591],[167.1546,-46.465],[167.1907,-46.533],[167.1929,-46.6115],[167.1568,-46.6811],[167.0879,-46.7366],[166.9933,-46.7715],[166.8779,-46.7817],[166.7817,-46.7674],[166.6746,-46.724],[166.598,-46.656],[166.57,-46.5767],[166.5918,-46.4936],[166.6703,-46.4185],[166.565,-46.396],[166.4344,-46.3358],[166.363,-46.2654],[166.2784,-46.2101],[166.1888,-46.0973],[166.1395,-45.9213],[166.1552,-45.6968],[166.1848,-45.6357],[166.2847,-45.5289],[166.4137,-45.4389],[166.5136,-45.2708],[166.6771,-45.0708],[167.0684,-44.73],[167.3119,-44.5978],[167.3933,-44.5238],[167.528,-44.4504],[167.6314,-44.327],[167.7385,-44.2416],[167.8381,-44.1271],[168.0521,-44.2586],[168.1577,-44.2822],[168.2503,-44.2551],[168.3449,-44.2818],[168.3488,-44.3302],[168.3814,-44.3381],[168.3684,-44.3545],[168.4114,-44.3616],[168.3518,-44.4042],[168.3661,-44.4244],[168.3368,-44.4954],[168.2897,-44.4964],[168.2346,-44.543],[168.2369,-44.5758],[168.185,-44.6461],[168.1925,-44.6807],[168.1692,-44.7213],[168.1819,-44.7452],[168.2053,-44.7463],[168.1676,-44.8283],[168.1274,-44.8286],[168.1165,-44.8764],[168.1372,-44.9135],[168.131,-44.938],[168.1761,-44.9663],[168.1746,-44.981],[168.2357,-45.0243],[168.2959,-45.0138],[168.3097,-45.026],[168.2914,-45.0405],[168.2842,-45.1062],[168.217,-45.1444],[168.2394,-45.1544],[168.2515,-45.1995],[168.2996,-45.2212],[168.2882,-45.2449],[168.307,-45.2604],[168.3003,-45.2939],[168.3233,-45.3275],[168.5394,-45.3093],[168.6741,-45.2431],[168.6978,-45.3119],[168.6922,-45.3397],[168.7747,-45.3652],[168.7787,-45.4366],[168.8252,-45.4461],[168.854,-45.4321],[168.8588,-45.452],[168.8869,-45.4628],[168.9596,-45.3591],[169.0677,-45.269],[169.0902,-45.2861],[169.0993,-45.3199],[169.1484,-45.339],[169.1644,-45.3708],[169.2093,-45.4024],[169.1996,-45.4343],[169.1472,-45.4506],[169.1302,-45.5245],[169.0587,-45.6411],[169.0247,-45.6596],[168.9934,-45.7285],[169.0035,-45.7958],[169.0289,-45.8089],[169.0052,-45.8635],[169.0504,-45.864],[169.0566,-45.8501],[169.0991,-45.8844],[169.0734,-45.9247],[169.0997,-45.948],[169.0666,-45.9853],[169.0727,-46.0016],[169.1278,-46.0031],[169.0799,-46.0091],[169.1036,-46.0368],[169.1533,-46.0487],[169.1579,-46.0684],[169.1356,-46.0854],[169.1633,-46.0958],[169.1632,-46.1171],[169.1298,-46.1478],[169.161,-46.1522],[169.167,-46.1919],[169.1983,-46.2004],[169.189,-46.2799],[169.1769,-46.2857],[169.1969,-46.3043],[169.1774,-46.3219],[169.1907,-46.3264],[169.1424,-46.3535],[169.1341,-46.3754],[169.196,-46.4044],[169.1968,-46.4388],[169.1632,-46.4633]]]},"properties":{"REGC2025_V1_00_NAME":"Southland Region"}},{"type":"Feature","geometry":{"type":"Polygon","coordinates":[[[173.2057,-41.2994],[173.1764,-41.3043],[173.23,-41.3688],[173.2496,-41.3646],[173.2564,-41.3822],[173.2974,-41.3931],[173.285,-41.4027],[173.2949,-41.4256],[173.2508,-41.4666],[173.3041,-41.5059],[173.2986,-41.5157],[173.1724,-41.5241],[173.1516,-41.5855],[173.0893,-41.6242],[173.0588,-41.6256],[173.0574,-41.6685],[173.0038,-41.7248],[172.9579,-41.7495],[172.9306,-41.7438],[172.9457,-41.7809],[172.891,-41.8183],[172.8677,-41.8666],[172.8476,-41.8743],[172.8647,-41.9089],[172.8472,-41.9425],[172.8081,-41.9581],[172.803,-41.9852],[172.7571,-42.036],[172.7331,-42.0343],[172.7215,-42.1035],[172.691,-42.1066],[172.6784,-42.0879],[172.6356,-42.1024],[172.641,-42.1326],[172.6118,-42.1581],[172.6057,-42.2039],[172.5594,-42.22],[172.5152,-42.264],[172.4536,-42.2748],[172.4309,-42.3056],[172.348,-42.2768],[172.3544,-42.2561],[172.3334,-42.2387],[172.3494,-42.2223],[172.3335,-42.1491],[172.2515,-42.1503],[172.2477,-42.1324],[172.2056,-42.1145],[172.2067,-42.0983],[172.1352,-42.104],[172.1049,-42.0489],[172.12,-42.0146],[172.071,-41.9985],[172.0701,-41.9647],[172.0506,-41.9523],[172.0774,-41.9205],[172.0635,-41.8987],[172.1157,-41.8684],[172.1163,-41.7892],[172.0973,-41.7742],[172.1179,-41.7562],[172.119,-41.7255],[172.1553,-41.6997],[172.2136,-41.689],[172.2524,-41.7018],[172.2374,-41.6402],[172.2644,-41.6273],[172.291,-41.6348],[172.3276,-41.6035],[172.343,-41.5115],[172.4189,-41.4706],[172.4311,-41.429],[172.4161,-41.4124],[172.4612,-41.3944],[172.5124,-41.4128],[172.5843,-41.3763],[172.6003,-41.3009],[172.5746,-41.258],[172.6579,-41.2392],[172.6921,-41.2],[172.6731,-41.1882],[172.6289,-41.1948],[172.6185,-41.1604],[172.5529,-41.1024],[172.5197,-41.0956],[172.5133,-41.0669],[172.492,-41.0647],[172.4914,-41.0226],[172.4194,-41.0336],[172.3825,-41.0226],[172.3503,-41.0634],[172.3248,-41.0595],[172.3337,-41.035],[172.3106,-41.0118],[172.3704,-40.9704],[172.3863,-40.9501],[172.3766,-40.935],[172.3019,-40.9245],[172.2815,-40.8989],[172.2883,-40.8756],[172.2614,-40.8587],[172.234,-40.8694],[172.2481,-40.8049],[172.0307,-40.6284],[172.1342,-40.5821],[172.4739,-40.3529],[172.5968,-40.3079],[172.6949,-40.2983],[172.9257,-40.3112],[173.0731,-40.339],[173.1677,-40.3779],[173.2732,-40.4506],[173.328,-40.5252],[173.3402,-40.6205],[173.289,-40.7492],[173.361,-40.8054],[173.2057,-41.2994]]]},"properties":{"REGC2025_V1_00_NAME":"Tasman Region"}},{"type":"Feature","geometry":{"type":"Polygon","coordinates":[[[173.232,-41.3627],[173.1764,-41.3043],[173.2058,-41.2993],[173.361,-40.8054],[173.4562,-40.8793],[173.5007,-40.8629],[173.597,-41.0581],[173.5809,-41.164],[173.5684,-41.1897],[173.523,-41.198],[173.4761,-41.229],[173.4155,-41.2888],[173.4147,-41.3231],[173.3607,-41.3532],[173.3375,-41.3855],[173.2974,-41.3931],[173.232,-41.3627]]]},"properties":{"REGC2025_V1_00_NAME":"Nelson Region"}},{"type":"Feature","geometry":{"type":"Polygon","coordinates":[[[173.5939,-41.0511],[173.5007,-40.8629],[173.5358,-40.7533],[173.624,-40.6267],[173.7233,-40.5607],[173.9403,-40.466],[174.0753,-40.4693],[174.189,-40.5221],[174.2482,-40.5865],[174.3146,-40.7305],[174.373,-40.7855],[174.4695,-40.813],[174.6035,-40.8959],[174.5148,-41.2157],[174.388,-41.4272],[174.413,-41.4694],[174.395,-41.4804],[174.4202,-41.5434],[174.4954,-41.5922],[174.5517,-41.667],[174.5677,-41.7361],[174.5561,-41.8009],[174.5111,-41.8677],[174.2641,-42.0992],[174.0477,-41.9682],[174.0634,-41.9347],[174.0494,-41.9291],[173.9772,-41.9334],[173.9588,-41.9085],[173.8173,-41.933],[173.7895,-41.9582],[173.7621,-41.9119],[173.7444,-41.9074],[173.7143,-41.9405],[173.7202,-41.9608],[173.6632,-41.9821],[173.6381,-42.0094],[173.6097,-42.0045],[173.5945,-42.0293],[173.5551,-42.0459],[173.5468,-42.0698],[173.4991,-42.0787],[173.4865,-42.1104],[173.4631,-42.1178],[173.4841,-42.1815],[173.464,-42.1798],[173.4645,-42.1957],[173.4375,-42.214],[173.3687,-42.224],[173.3732,-42.2368],[173.3511,-42.2427],[173.3415,-42.2279],[173.3333,-42.2466],[173.2965,-42.248],[173.2959,-42.2658],[173.1832,-42.3368],[173.2433,-42.3561],[173.2238,-42.3567],[173.2207,-42.3801],[173.1643,-42.4185],[173.1523,-42.4496],[173.1116,-42.4459],[173.0569,-42.4872],[173.0371,-42.4843],[173.0158,-42.447],[172.9695,-42.4487],[173.0029,-42.3933],[172.9414,-42.3778],[172.9438,-42.3513],[172.9196,-42.3459],[172.915,-42.3093],[172.8469,-42.3079],[172.8423,-42.2896],[172.8635,-42.2562],[172.8266,-42.2482],[172.8321,-42.1845],[172.8069,-42.1895],[172.7938,-42.1617],[172.7496,-42.1724],[172.7216,-42.1587],[172.733,-42.0345],[172.7571,-42.036],[172.803,-41.9852],[172.8081,-41.9581],[172.8472,-41.9426],[172.8647,-41.9089],[172.8476,-41.8743],[172.8677,-41.8666],[172.891,-41.8183],[172.9457,-41.7809],[172.926,-41.7484],[172.9579,-41.7495],[173.0038,-41.7248],[173.0574,-41.6685],[173.0588,-41.6256],[173.0893,-41.6242],[173.1514,-41.5857],[173.1724,-41.5241],[173.2986,-41.5157],[173.3041,-41.5059],[173.2508,-41.4666],[173.2949,-41.4256],[173.285,-41.4027],[173.3375,-41.3855],[173.3607,-41.3532],[173.4068,-41.331],[173.4155,-41.2888],[173.4762,-41.2289],[173.5744,-41.1837],[173.5939,-41.0511]]]},"properties":{"REGC2025_V1_00_NAME":"Marlborough Region"}},{"type":"Feature","geometry":{"type":"MultiPolygon","coordinates":[[[[-176.9723,-43.3471],[-176.7044,-43.39],[-176.5943,-43.4567],[-176.5334,-43.5226],[-176.4412,-43.5508],[-176.2257,-43.5456],[-176.115,-43.5734],[-176.0088,-43.6558],[-175.9831,-43.7097],[-175.9796,-43.7726],[-175.8883,-43.7379],[-175.7863,-43.7278],[-175.6666,-43.7497],[-175.5833,-43.7937],[-175.5348,-43.8422],[-175.5065,-43.8985],[-175.5116,-44.0025],[-175.5838,-44.0926],[-175.7103,-44.1484],[-175.623,-44.2075],[-175.581,-44.2728],[-175.5752,-44.3589],[-175.6082,-44.4269],[-175.6875,-44.4917],[-175.7774,-44.5241],[-175.8975,-44.531],[-176.0026,-44.5059],[-176.0968,-44.5676],[-176.1901,-44.5979],[-176.3172,-44.6079],[-176.4175,-44.5931],[-176.5654,-44.5222],[-176.6609,-44.4327],[-176.7174,-44.3353],[-176.8973,-44.2449],[-176.9636,-44.1814],[-177.017,-44.0935],[-177.1608,-44.0832],[-177.2809,-44.0254],[-177.3432,-43.948],[-177.3565,-43.859],[-177.3367,-43.8008],[-177.2956,-43.7488],[-177.2364,-43.707],[-177.1534,-43.676],[-177.2152,-43.5919],[-177.2232,-43.5373],[-177.2102,-43.4833],[-177.1269,-43.3931],[-176.9723,-43.3471]]],[[[172.2172,-33.9612],[172.3546,-34.0055],[172.3929,-34.064],[172.4071,-34.1632],[172.385,-34.2368],[172.3427,-34.2933],[172.2435,-34.3518],[172.0644,-34.3903],[171.9414,-34.374],[171.8443,-34.3128],[171.8108,-34.264],[171.7895,-34.1928],[171.8302,-34.0627],[171.8769,-34.0232],[171.9762,-33.9845],[172.2172,-33.9612]]]]},"properties":{"REGC2025_V1_00_NAME":"Area Outside Region"}}]}